[{"OBJECT_NAME":"HAWK-11C","OBJECT_ID":"2024-247E","EPOCH":"2026-03-09T12:17:35.407968","MEAN_MOTION":15.2884802,"ECCENTRICITY":0.00059001,"INCLINATION":45.0045,"RA_OF_ASC_NODE":114.8762,"ARG_OF_PERICENTER":329.704,"MEAN_ANOMALY":30.3502,"EPHEMERIS_TYPE":0,"CLASSIFICATION_TYPE":"U","NORAD_CAT_ID":62381,"ELEMENT_SET_NO":999,"REV_AT_EPOCH":6774,"BSTAR":0.00033290115,"MEAN_MOTION_DOT":9.223e-5,"MEAN_MOTION_DDOT":0},{"OBJECT_NAME":"STARLINK-35944","OBJECT_ID":"2025-286D","EPOCH":"2026-03-09T22:53:36.449376","MEAN_MOTION":15.30228299,"ECCENTRICITY":8.733e-5,"INCLINATION":53.1605,"RA_OF_ASC_NODE":357.4787,"ARG_OF_PERICENTER":91.1296,"MEAN_ANOMALY":268.9804,"EPHEMERIS_TYPE":0,"CLASSIFICATION_TYPE":"U","NORAD_CAT_ID":66928,"ELEMENT_SET_NO":999,"REV_AT_EPOCH":1545,"BSTAR":0.0015069631,"MEAN_MOTION_DOT":0.0004458,"MEAN_MOTION_DDOT":0}]
